{"fetched_at":"2026-03-29T16:36:15Z","count":15609,"tles":[{"name":"STARLINK-36140","line1":"1 67034U 25294E   26087.90033171  .00022030  00000+0  80715-3 0  9999","line2":"2 67034  43.0002 289.8934 0001336 265.9208  94.1491 15.27601931 17730","category":"Starlink"}]}