{
  "norad_id": 67034,
  "name": "STARLINK-36140",
  "history": [
    {
      "epoch": "2026-03-28T21:36:28.659744",
      "apogee_km": 483.9000732107861,
      "perigee_km": 482.0667818325528,
      "latitude_deg": 35.229049215772406,
      "longitude_deg": -110.16815584013239,
      "semi_major_axis_km": 6861.120427521669,
      "eccentricity": 0.0001336,
      "inclination_deg": 43.0002,
      "raan_deg": 289.8934,
      "arg_perigee_deg": 265.9208,
      "mean_anomaly_deg": 94.1491,
      "mean_motion_rev_day": 15.27601931
    }
  ]
}